NORAD_CAT_ID,OBJECT_NAME,OBJECT_TYPE,EPOCH,MEAN_MOTION,ECCENTRICITY,INCLINATION,RA_OF_ASC_NODE,ARG_OF_PERICENTER,MEAN_ANOMALY,BSTAR,MEAN_MOTION_DOT,MEAN_MOTION_DDOT,TLE_LINE0,TLE_LINE1,TLE_LINE2,SEMIMAJOR_AXIS,PERIOD,APOGEE,PERIGEE,DECAYED
51882.0,STARLINK-3570,PAYLOAD,2024-07-19 04:10:36,15.08845344,0.0001605,53.218,165.9679,117.8883,242.2272,2.9519e-05,1.82e-06,0.0,0 STARLINK-3570,1 51882U 22022AG  24201.17403387  .00000182  00000-0  29519-4 0  9995,2 51882  53.2180 165.9679 0001605 117.8883 242.2272 15.08845344132948,6917.864,95.437,540.839,538.619,0.0
51882.0,STARLINK-3570,PAYLOAD,2024-07-19 15:18:18,15.08844355,0.000167,53.2189,163.886,113.1855,246.9314,7.3718e-05,8.86e-06,0.0,0 STARLINK-3570,1 51882U 22022AG  24201.63771248  .00000886  00000-0  73718-4 0  9991,2 51882  53.2189 163.8860 0001670 113.1855 246.9314 15.08844355133014,6917.867,95.437,540.887,538.577,0.0
51882.0,STARLINK-3570,PAYLOAD,2024-07-20 02:26:00,15.08840966,0.0001621,53.2178,161.8075,99.1908,260.9267,0.0002175,3.175e-05,0.0,0 STARLINK-3570,1 51882U 22022AG  24202.10139237  .00003175  00000-0  21750-3 0  9992,2 51882  53.2178 161.8075 0001621  99.1908 260.9267 15.08840966133080,6917.877,95.437,540.864,538.621,0.0
51882.0,STARLINK-3570,PAYLOAD,2024-07-20 07:12:08,15.08850198,0.0002238,53.2179,160.9083,133.0181,227.0999,0.00027284,4.058e-05,0.0,0 STARLINK-3570,1 51882U 22022AG  24202.30010297  .00004058  00000-0  27284-3 0  9997,2 51882  53.2179 160.9083 0002238 133.0181 227.0999 15.08850198133114,6917.849,95.437,541.262,538.166,0.0
51882.0,STARLINK-3570,PAYLOAD,2024-07-21 03:52:10,15.08838553,0.0001369,53.2163,157.0494,105.0841,255.0302,7.4089e-06,-1.7e-06,0.0,0 STARLINK-3570,1 51882U 22022AG  24203.16123336 -.00000170  00000-0  74089-5 0  9990,2 51882  53.2163 157.0494 0001369 105.0841 255.0302 15.08838553133240,6917.885,95.438,540.697,538.803,0.0
51882.0,STARLINK-3570,PAYLOAD,2024-07-21 07:02:57,15.08835364,0.0001118,53.2164,156.4579,94.9791,265.1329,-4.4701e-05,-9.99e-06,0.0,0 STARLINK-3570,1 51882U 22022AG  24203.29371969 -.00000999  00000-0 -44701-4 0  9998,2 51882  53.2164 156.4579 0001118  94.9791 265.1329 15.08835364133260,6917.895,95.438,540.533,538.986,0.0
51882.0,STARLINK-3570,PAYLOAD,2024-07-22 06:53:44,15.08844474,0.000213,53.217,151.9974,135.8711,224.2451,-0.00020051,-3.478e-05,0.0,0 STARLINK-3570,1 51882U 22022AG  24204.28732086 -.00003478  00000-0 -20051-3 0  9995,2 51882  53.2170 151.9974 0002130 135.8711 224.2451 15.08844474133419,6917.867,95.437,541.205,538.258,0.0
51882.0,STARLINK-3570,PAYLOAD,2024-07-23 13:06:02,15.08853754,0.0001047,53.2171,146.3453,85.1581,274.9531,0.00036251,5.488e-05,0.0,0 STARLINK-3570,1 51882U 22022AG  24205.54586751  .00005488  00000-0  36251-3 0  9991,2 51882  53.2171 146.3453 0001047  85.1581 274.9531 15.08853754133601,6917.838,95.437,540.428,538.979,0.0
51882.0,STARLINK-3570,PAYLOAD,2024-07-24 04:59:56,15.08826534,0.000141,53.2171,143.3731,90.8766,269.2388,-8.9601e-05,-1.713e-05,0.0,0 STARLINK-3570,1 51882U 22022AG  24206.20829238 -.00001713  00000-0 -89601-4 0  9992,2 51882  53.2171 143.3731 0001410  90.8766 269.2388 15.08826534133703,6917.922,95.438,540.762,538.811,0.0
51882.0,STARLINK-3570,PAYLOAD,2024-07-25 04:50:42,15.0885576,0.0001474,53.2165,138.9103,79.5546,280.5612,0.00068301,0.00010603,0.0,0 STARLINK-3570,1 51882U 22022AG  24207.20188652  .00010603  00000-0  68301-3 0  9990,2 51882  53.2165 138.9103 0001474  79.5546 280.5612 15.08855760133854,6917.832,95.437,540.717,538.678,0.0
51882.0,STARLINK-3570,PAYLOAD,2024-07-26 01:30:43,15.08848147,0.0001503,53.2168,135.0371,77.3553,282.7607,0.00028524,4.256e-05,0.0,0 STARLINK-3570,1 51882U 22022AG  24208.06300635  .00004256  00000-0  28524-3 0  9992,2 51882  53.2168 135.0371 0001503  77.3553 282.7607 15.08848147133982,6917.855,95.437,540.76,538.681,0.0
51882.0,STARLINK-3570,PAYLOAD,2024-07-26 18:59:57,15.08851924,0.0002287,53.2161,131.7742,91.011,269.1144,0.00072527,0.00011277,0.0,0 STARLINK-3570,1 51882U 22022AG  24208.79164312  .00011277  00000-0  72527-3 0  9995,2 51882  53.2161 131.7742 0002287  91.0110 269.1144 15.08851924134097,6917.844,95.437,541.291,538.127,0.0
51882.0,STARLINK-3570,PAYLOAD,2024-07-27 22:01:31,15.08834666,0.0001606,53.2153,126.7162,100.2128,259.9045,-4.859e-05,-1.061e-05,0.0,0 STARLINK-3570,1 51882U 22022AG  24209.91772429 -.00001061  00000-0 -48590-4 0  9990,2 51882  53.2153 126.7162 0001606 100.2128 259.9045 15.08834666134264,6917.897,95.438,540.873,538.651,0.0
51882.0,STARLINK-3570,PAYLOAD,2024-07-28 01:12:18,15.08831473,0.0001317,53.2152,126.1218,78.6497,281.4643,-3.6704e-05,-8.72e-06,0.0,0 STARLINK-3570,1 51882U 22022AG  24210.05020908 -.00000872  00000-0 -36704-4 0  9998,2 51882  53.2152 126.1218 0001317  78.6497 281.4643 15.08831473134284,6917.906,95.438,540.683,538.86,0.0
51882.0,STARLINK-3570,PAYLOAD,2024-07-28 21:52:19,15.0883183,0.0001285,53.216,122.2581,82.9296,277.1842,6.5364e-05,7.52e-06,0.0,0 STARLINK-3570,1 51882U 22022AG  24210.91133267  .00000752  00000-0  65364-4 0  9995,2 51882  53.2160 122.2581 0001285  82.9296 277.1842 15.08831830134417,6917.905,95.438,540.659,538.881,0.0
51882.0,STARLINK-3570,PAYLOAD,2024-07-29 10:35:23,15.08841743,0.0001386,53.2179,119.8793,80.0131,280.1017,0.00025551,3.781e-05,0.0,0 STARLINK-3570,1 51882U 22022AG  24211.44124338  .00003781  00000-0  25551-3 0  9991,2 51882  53.2179 119.8793 0001386  80.0131 280.1017 15.08841743134493,6917.875,95.437,540.699,538.781,0.0
51882.0,STARLINK-3570,PAYLOAD,2024-07-29 21:43:06,15.08831224,0.0001736,53.2178,117.8003,110.622,249.4958,0.00015501,2.179e-05,0.0,0 STARLINK-3570,1 51882U 22022AG  24211.90493585  .00002179  00000-0  15501-3 0  9999,2 51882  53.2178 117.8003 0001736 110.6220 249.4958 15.08831224134565,6917.907,95.438,540.973,538.571,0.0
51882.0,STARLINK-3570,PAYLOAD,2024-07-30 00:53:52,15.08832045,0.000144,53.2181,117.208,92.4741,267.6416,0.00017121,2.437e-05,0.0,0 STARLINK-3570,1 51882U 22022AG  24212.03741690  .00002437  00000-0  17121-3 0  9994,2 51882  53.2181 117.2080 0001440  92.4741 267.6416 15.08832045134580,6917.905,95.438,540.766,538.774,0.0
51882.0,STARLINK-3570,PAYLOAD,2024-07-30 10:26:10,15.08848388,0.0001504,53.2187,115.4243,95.5142,264.6022,0.00024944,3.685e-05,0.0,0 STARLINK-3570,1 51882U 22022AG  24212.43484608  .00003685  00000-0  24944-3 0  9998,2 51882  53.2187 115.4243 0001504  95.5142 264.6022 15.08848388134641,6917.855,95.437,540.76,538.679,0.0
51882.0,STARLINK-3570,PAYLOAD,2024-07-30 23:09:16,15.08843208,0.0001607,53.2171,113.0448,98.4676,261.6498,0.00014812,2.07e-05,0.0,0 STARLINK-3570,1 51882U 22022AG  24212.96477106  .00002070  00000-0  14812-3 0  9991,2 51882  53.2171 113.0448 0001607  98.4676 261.6498 15.08843208134722,6917.871,95.437,540.847,538.624,0.0
51882.0,STARLINK-3570,PAYLOAD,2024-07-31 00:44:39,15.08846977,0.0001541,53.2173,112.7479,100.3425,259.7741,0.00020006,2.898e-05,0.0,0 STARLINK-3570,1 51882U 22022AG  24213.03100887  .00002898  00000-0  20006-3 0  9999,2 51882  53.2173 112.7479 0001541 100.3425 259.7741 15.08846977134732,6917.859,95.437,540.79,538.658,0.0
51882.0,STARLINK-3570,PAYLOAD,2024-07-31 10:16:57,15.08861716,0.0001333,53.2161,110.9586,66.5334,293.5798,0.00030268,4.535e-05,0.0,0 STARLINK-3570,1 51882U 22022AG  24213.42843853  .00004535  00000-0  30268-3 0  9990,2 51882  53.2161 110.9586 0001333  66.5334 293.5798 15.08861716134791,6917.814,95.436,540.601,538.757,0.0
51882.0,STARLINK-3570,PAYLOAD,2024-07-31 21:24:40,15.0882755,0.0001572,53.2179,108.8819,87.5664,272.5508,-6.2853e-05,-1.288e-05,0.0,0 STARLINK-3570,1 51882U 22022AG  24213.89213847 -.00001288  00000-0 -62853-4 0  9995,2 51882  53.2179 108.8819 0001572  87.5664 272.5508 15.08827550134861,6917.918,95.438,540.871,538.696,0.0
51882.0,STARLINK-3570,PAYLOAD,2024-07-31 23:00:03,15.08831558,0.0001563,53.2164,108.5792,72.153,287.9632,-0.00015434,-2.743e-05,0.0,0 STARLINK-3570,1 51882U 22022AG  24213.95837645 -.00002743  00000-0 -15434-3 0  9999,2 51882  53.2164 108.5792 0001563  72.1530 287.9632 15.08831558134876,6917.906,95.438,540.852,538.69,0.0
51882.0,STARLINK-3570,PAYLOAD,2024-08-01 00:35:26,15.08831484,0.0001516,53.2162,108.2836,73.6098,286.5061,-0.00015096,-2.689e-05,0.0,0 STARLINK-3570,1 51882U 22022AG  24214.02461442 -.00002689  00000-0 -15096-3 0  9999,2 51882  53.2162 108.2836 0001516  73.6098 286.5061 15.08831484134883,6917.906,95.438,540.82,538.723,0.0
51882.0,STARLINK-3570,PAYLOAD,2024-08-01 21:15:27,15.08848912,0.0001538,53.2169,104.4204,80.0241,280.0924,0.0003372,5.084e-05,0.0,0 STARLINK-3570,1 51882U 22022AG  24214.88573029  .00005084  00000-0  33720-3 0  9992,2 51882  53.2169 104.4204 0001538  80.0241 280.0924 15.08848912135010,6917.853,95.437,540.782,538.654,0.0
51882.0,STARLINK-3570,PAYLOAD,2024-08-01 22:50:50,15.08853684,0.0001338,53.2158,104.1239,83.5411,276.5734,0.00056412,8.705e-05,0.0,0 STARLINK-3570,1 51882U 22022AG  24214.95196924  .00008705  00000-0  56412-3 0  9991,2 51882  53.2158 104.1239 0001338  83.5411 276.5734 15.08853684135020,6917.839,95.437,540.629,538.778,0.0
51882.0,STARLINK-3570,PAYLOAD,2024-08-02 09:58:31,15.08868374,0.0001368,53.2152,102.0425,80.2898,279.8248,0.00095807,0.00015004,0.0,0 STARLINK-3570,1 51882U 22022AG  24215.41564514  .00015004  00000-0  95807-3 0  9998,2 51882  53.2152 102.0425 0001368  80.2898 279.8248 15.08868374135099,6917.794,95.436,540.605,538.712,0.0
51882.0,STARLINK-3570,PAYLOAD,2024-08-02 22:41:37,15.08836259,0.0001503,53.2147,99.6626,95.6074,264.509,4.1898e-05,3.79e-06,0.0,0 STARLINK-3570,1 51882U 22022AG  24215.94557205  .00000379  00000-0  41898-4 0  9996,2 51882  53.2147  99.6626 0001503  95.6074 264.5090 15.08836259135176,6917.892,95.438,540.797,538.717,0.0
51882.0,STARLINK-3570,PAYLOAD,2024-08-03 09:49:19,15.08840052,0.0001424,53.2158,97.5786,110.7241,249.3903,0.0010731,0.00016832,0.0,0 STARLINK-3570,1 51882U 22022AG  24216.40925675  .00016832  00000-0  10731-2 0  9999,2 51882  53.2158  97.5786 0001424 110.7241 249.3903 15.08840052135247,6917.88,95.438,540.73,538.76,0.0
